start=new Date('2022-08-03T00:00:00.000Z').valueOf();
sats=[{"NORAD_CAT_ID":"48287","RCS_SIZE":"LARGE","ARG_OF_PERICENTER":"63.3618","MEAN_MOTION_DOT":"0.00000670","TLE_LINE2":"2 48287  53.0547 226.5382 0001675  63.3618 296.7543 15.06392428 70057","ECCENTRICITY":"0.00016750","INCLINATION":"53.0547","MEAN_MOTION":"15.06392428","TLE_LINE1":"1 48287U 21036M   22214.32269332  .00000670  00000-0  63856-4 0  9997","EPHEMERIS_TYPE":"0","CLASSIFICATION_TYPE":"U","FILE":"3527697","MEAN_MOTION_DDOT":"0.0000000000000","PERIOD":"95.593","ELEMENT_SET_NO":"999","RA_OF_ASC_NODE":"226.5382","REV_AT_EPOCH":"7005","SEMIMAJOR_AXIS":"6925.372","SITE":"AFETR","COUNTRY_CODE":"US","CENTER_NAME":"EARTH","OBJECT_ID":"2021-036M","APOAPSIS":"548.397","REF_FRAME":"TEME","TIME_SYSTEM":"UTC","PERIAPSIS":"546.077","OBJECT_TYPE":"PAYLOAD","DECAY_DATE":null,"GP_ID":"209428455","MEAN_ANOMALY":"296.7543","BSTAR":"0.00006385600000","OBJECT_NAME":"STARLINK-2566","LAUNCH_DATE":"2021-04-29","EPOCH":"2022-08-02T07:44:40.702848","MEAN_ELEMENT_THEORY":"SGP4"},{"MEAN_MOTION_DOT":"0.00000729","TLE_LINE2":"2 48288  53.0536 225.9493 0001540  63.2676 296.8470 15.06390605 70657","ECCENTRICITY":"0.00015400","INCLINATION":"53.0536","NORAD_CAT_ID":"48288","RCS_SIZE":"LARGE","ARG_OF_PERICENTER":"63.2676","PERIOD":"95.593","ELEMENT_SET_NO":"999","RA_OF_ASC_NODE":"225.9493","REV_AT_EPOCH":"7065","MEAN_MOTION":"15.06390605","TLE_LINE1":"1 48288U 21036N   22214.45076308  .00000729  00000-0  67858-4 0  9992","EPHEMERIS_TYPE":"0","CLASSIFICATION_TYPE":"U","FILE":"3527461","MEAN_MOTION_DDOT":"0.0000000000000","APOAPSIS":"548.309","REF_FRAME":"TEME","TIME_SYSTEM":"UTC","PERIAPSIS":"546.176","OBJECT_TYPE":"PAYLOAD","SEMIMAJOR_AXIS":"6925.377","SITE":"AFETR","COUNTRY_CODE":"US","OBJECT_ID":"2021-036N","CENTER_NAME":"EARTH","MEAN_ANOMALY":"296.8470","BSTAR":"0.00006785800000","OBJECT_NAME":"STARLINK-2562","EPOCH":"2022-08-02T10:49:05.930112","LAUNCH_DATE":"2021-04-29","MEAN_ELEMENT_THEORY":"SGP4","DECAY_DATE":null,"GP_ID":"209399746"},{"APOAPSIS":"548.351","REF_FRAME":"TEME","OBJECT_TYPE":"PAYLOAD","TIME_SYSTEM":"UTC","PERIAPSIS":"546.117","SITE":"AFETR","SEMIMAJOR_AXIS":"6925.369","COUNTRY_CODE":"US","OBJECT_ID":"2021-036P","CENTER_NAME":"EARTH","BSTAR":"-0.00005349500000","MEAN_ANOMALY":"303.8316","LAUNCH_DATE":"2021-04-29","MEAN_ELEMENT_THEORY":"SGP4","EPOCH":"2022-08-02T12:20:40.259040","OBJECT_NAME":"STARLINK-2545","GP_ID":"209431647","DECAY_DATE":null,"TLE_LINE2":"2 48289  53.0541 225.6681 0001613  56.2827 303.8316 15.06393256 70665","MEAN_MOTION_DOT":"-0.00001078","ECCENTRICITY":"0.00016130","INCLINATION":"53.0541","NORAD_CAT_ID":"48289","ARG_OF_PERICENTER":"56.2827","RCS_SIZE":"LARGE","PERIOD":"95.593","RA_OF_ASC_NODE":"225.6681","ELEMENT_SET_NO":"999","REV_AT_EPOCH":"7066","MEAN_MOTION":"15.06393256","TLE_LINE1":"1 48289U 21036P   22214.51435485 -.00001078  00000-0 -53495-4 0  9997","FILE":"3527699","MEAN_MOTION_DDOT":"0.0000000000000","EPHEMERIS_TYPE":"0","CLASSIFICATION_TYPE":"U"},{"APOAPSIS":"548.226","REF_FRAME":"TEME","OBJECT_TYPE":"PAYLOAD","TIME_SYSTEM":"UTC","PERIAPSIS":"546.228","SITE":"AFETR","SEMIMAJOR_AXIS":"6925.362","COUNTRY_CODE":"US","CENTER_NAME":"EARTH","OBJECT_ID":"2021-036Q","BSTAR":"0.00009403100000","MEAN_ANOMALY":"285.9057","LAUNCH_DATE":"2021-04-29","EPOCH":"2022-08-02T12:15:22.876416","MEAN_ELEMENT_THEORY":"SGP4","OBJECT_NAME":"STARLINK-2540","GP_ID":"209428205","DECAY_DATE":null,"TLE_LINE2":"2 48290  53.0525 225.6888 0001442  74.2091 285.9057 15.06395657 70086","MEAN_MOTION_DOT":"0.00001119","ECCENTRICITY":"0.00014420","INCLINATION":"53.0525","NORAD_CAT_ID":"48290","ARG_OF_PERICENTER":"74.2091","RCS_SIZE":"LARGE","PERIOD":"95.592","RA_OF_ASC_NODE":"225.6888","ELEMENT_SET_NO":"999","REV_AT_EPOCH":"7008","MEAN_MOTION":"15.06395657","TLE_LINE1":"1 48290U 21036Q   22214.51068144  .00001119  00000-0  94031-4 0  9998","FILE":"3527697","MEAN_MOTION_DDOT":"0.0000000000000","EPHEMERIS_TYPE":"0","CLASSIFICATION_TYPE":"U"},{"SEMIMAJOR_AXIS":"6925.361","SITE":"AFETR","OBJECT_ID":"2021-036R","CENTER_NAME":"EARTH","COUNTRY_CODE":"US","REF_FRAME":"TEME","APOAPSIS":"548.411","PERIAPSIS":"546.041","TIME_SYSTEM":"UTC","OBJECT_TYPE":"PAYLOAD","GP_ID":"209427956","DECAY_DATE":null,"MEAN_ANOMALY":"297.9235","BSTAR":"0.00005005400000","OBJECT_NAME":"STARLINK-2555","EPOCH":"2022-08-02T07:23:26.638080","LAUNCH_DATE":"2021-04-29","MEAN_ELEMENT_THEORY":"SGP4","NORAD_CAT_ID":"48291","RCS_SIZE":"LARGE","ARG_OF_PERICENTER":"62.1927","MEAN_MOTION_DOT":"0.00000464","TLE_LINE2":"2 48291  53.0525 226.5956 0001711  62.1927 297.9235 15.06396032 70052","INCLINATION":"53.0525","ECCENTRICITY":"0.00017110","TLE_LINE1":"1 48291U 21036R   22214.30794720  .00000464  00000-0  50054-4 0  9991","MEAN_MOTION":"15.06396032","CLASSIFICATION_TYPE":"U","EPHEMERIS_TYPE":"0","MEAN_MOTION_DDOT":"0.0000000000000","FILE":"3527697","ELEMENT_SET_NO":"999","RA_OF_ASC_NODE":"226.5956","PERIOD":"95.592","REV_AT_EPOCH":"7005"},{"TLE_LINE1":"1 48292U 21036S   22214.51805928 -.00000209  00000-0  48379-5 0  9994","MEAN_MOTION":"15.06398879","CLASSIFICATION_TYPE":"U","EPHEMERIS_TYPE":"0","MEAN_MOTION_DDOT":"0.0000000000000","FILE":"3527697","ELEMENT_SET_NO":"999","RA_OF_ASC_NODE":"225.8283","PERIOD":"95.592","REV_AT_EPOCH":"7008","NORAD_CAT_ID":"48292","RCS_SIZE":"LARGE","ARG_OF_PERICENTER":"58.4166","MEAN_MOTION_DOT":"-0.00000209","TLE_LINE2":"2 48292  53.0547 225.8283 0001534  58.4166 301.6972 15.06398879 70083","INCLINATION":"53.0547","ECCENTRICITY":"0.00015340","GP_ID":"209426704","DECAY_DATE":null,"MEAN_ANOMALY":"301.6972","BSTAR":"0.00000483790000","OBJECT_NAME":"STARLINK-2542","LAUNCH_DATE":"2021-04-29","MEAN_ELEMENT_THEORY":"SGP4","EPOCH":"2022-08-02T12:26:00.321792","SEMIMAJOR_AXIS":"6925.352","SITE":"AFETR","CENTER_NAME":"EARTH","OBJECT_ID":"2021-036S","COUNTRY_CODE":"US","REF_FRAME":"TEME","APOAPSIS":"548.279","PERIAPSIS":"546.155","TIME_SYSTEM":"UTC","OBJECT_TYPE":"PAYLOAD"},{"TLE_LINE2":"2 48293  53.0530 226.0455 0001500  62.4315 297.6826 15.06384346 70079","MEAN_MOTION_DOT":"0.00000825","INCLINATION":"53.0530","ECCENTRICITY":"0.00015000","NORAD_CAT_ID":"48293","ARG_OF_PERICENTER":"62.4315","RCS_SIZE":"LARGE","ELEMENT_SET_NO":"999","RA_OF_ASC_NODE":"226.0455","PERIOD":"95.593","REV_AT_EPOCH":"7007","TLE_LINE1":"1 48293U 21036T   22214.43327471  .00000825  00000-0  74335-4 0  9991","MEAN_MOTION":"15.06384346","MEAN_MOTION_DDOT":"0.0000000000000","FILE":"3527697","CLASSIFICATION_TYPE":"U","EPHEMERIS_TYPE":"0","REF_FRAME":"TEME","APOAPSIS":"548.300","OBJECT_TYPE":"PAYLOAD","PERIAPSIS":"546.223","TIME_SYSTEM":"UTC","SITE":"AFETR","SEMIMAJOR_AXIS":"6925.397","CENTER_NAME":"EARTH","OBJECT_ID":"2021-036T","COUNTRY_CODE":"US","BSTAR":"0.00007433500000","MEAN_ANOMALY":"297.6826","EPOCH":"2022-08-02T10:23:54.934944","LAUNCH_DATE":"2021-04-29","MEAN_ELEMENT_THEORY":"SGP4","OBJECT_NAME":"STARLINK-2550","DECAY_DATE":null,"GP_ID":"209427454"},{"APOAPSIS":"548.258","REF_FRAME":"TEME","OBJECT_TYPE":"PAYLOAD","TIME_SYSTEM":"UTC","PERIAPSIS":"546.244","SITE":"AFETR","SEMIMAJOR_AXIS":"6925.386","COUNTRY_CODE":"US","CENTER_NAME":"EARTH","OBJECT_ID":"2021-036U","BSTAR":"-0.00007740700000","MEAN_ANOMALY":"296.0272","EPOCH":"2022-08-02T07:07:31.101600","LAUNCH_DATE":"2021-04-29","MEAN_ELEMENT_THEORY":"SGP4","OBJECT_NAME":"STARLINK-2533","DECAY_DATE":null,"GP_ID":"209427706","TLE_LINE2":"2 48294  53.0532 226.6494 0001454  64.0867 296.0272 15.06387677 70055","MEAN_MOTION_DOT":"-0.00001434","ECCENTRICITY":"0.00014540","INCLINATION":"53.0532","NORAD_CAT_ID":"48294","ARG_OF_PERICENTER":"64.0867","RCS_SIZE":"LARGE","PERIOD":"95.593","ELEMENT_SET_NO":"999","RA_OF_ASC_NODE":"226.6494","REV_AT_EPOCH":"7005","MEAN_MOTION":"15.06387677","TLE_LINE1":"1 48294U 21036U   22214.29688775 -.00001434  00000-0 -77407-4 0  9995","FILE":"3527697","MEAN_MOTION_DDOT":"0.0000000000000","EPHEMERIS_TYPE":"0","CLASSIFICATION_TYPE":"U"},{"REF_FRAME":"TEME","APOAPSIS":"548.281","OBJECT_TYPE":"PAYLOAD","PERIAPSIS":"546.153","TIME_SYSTEM":"UTC","SITE":"AFETR","SEMIMAJOR_AXIS":"6925.352","CENTER_NAME":"EARTH","OBJECT_ID":"2021-036V","COUNTRY_CODE":"US","BSTAR":"0.00010845000000","MEAN_ANOMALY":"288.2680","MEAN_ELEMENT_THEORY":"SGP4","LAUNCH_DATE":"2021-04-29","EPOCH":"2022-08-02T08:37:44.862528","OBJECT_NAME":"STARLINK-2535","GP_ID":"209428456","DECAY_DATE":null,"TLE_LINE2":"2 48295  53.0549 226.3713 0001537  71.8477 288.2680 15.06398890 70066","MEAN_MOTION_DOT":"0.00001334","INCLINATION":"53.0549","ECCENTRICITY":"0.00015370","NORAD_CAT_ID":"48295","ARG_OF_PERICENTER":"71.8477","RCS_SIZE":"LARGE","RA_OF_ASC_NODE":"226.3713","ELEMENT_SET_NO":"999","PERIOD":"95.592","REV_AT_EPOCH":"7006","TLE_LINE1":"1 48295U 21036V   22214.35954702  .00001334  00000-0  10845-3 0  9998","MEAN_MOTION":"15.06398890","MEAN_MOTION_DDOT":"0.0000000000000","FILE":"3527697","CLASSIFICATION_TYPE":"U","EPHEMERIS_TYPE":"0"},{"EPHEMERIS_TYPE":"0","CLASSIFICATION_TYPE":"U","FILE":"3527697","MEAN_MOTION_DDOT":"0.0000000000000","MEAN_MOTION":"15.06397154","TLE_LINE1":"1 48296U 21036W   22214.35585959  .00000825  00000-0  74268-4 0  9997","REV_AT_EPOCH":"7006","PERIOD":"95.592","RA_OF_ASC_NODE":"226.3893","ELEMENT_SET_NO":"999","RCS_SIZE":"LARGE","ARG_OF_PERICENTER":"72.7663","NORAD_CAT_ID":"48296","ECCENTRICITY":"0.00015100","INCLINATION":"53.0541","MEAN_MOTION_DOT":"0.00000825","TLE_LINE2":"2 48296  53.0541 226.3893 0001510  72.7663 287.3491 15.06397154 70068","GP_ID":"209427204","DECAY_DATE":null,"OBJECT_NAME":"STARLINK-2546","EPOCH":"2022-08-02T08:32:26.268576","LAUNCH_DATE":"2021-04-29","MEAN_ELEMENT_THEORY":"SGP4","MEAN_ANOMALY":"287.3491","BSTAR":"0.00007426800000","COUNTRY_CODE":"US","CENTER_NAME":"EARTH","OBJECT_ID":"2021-036W","SEMIMAJOR_AXIS":"6925.357","SITE":"AFETR","TIME_SYSTEM":"UTC","PERIAPSIS":"546.177","OBJECT_TYPE":"PAYLOAD","APOAPSIS":"548.268","REF_FRAME":"TEME"}];
